{"type": "FeatureCollection", "features": [ {"type": "Feature", "properties": {"norad_id": 42969, "name": "SENTINEL-5P", "group": "resource", "lat": -37.76073157247801, "lon": -69.31972835803771, "alt_km": 833.7277119785213, "timestamp": "2025-12-11T05:00:25.968570+00:00", "meta": {"OBJECT_NAME": "SENTINEL-5P", "OBJECT_ID": "2017-064A", "EPOCH": "2025-12-10T13:57:44.045856", "MEAN_MOTION": 14.1951665, "ECCENTRICITY": 9.63e-05, "INCLINATION": 98.7782, "RA_OF_ASC_NODE": 283.1851, "ARG_OF_PERICENTER": 87.8705, "MEAN_ANOMALY": 272.2581, "EPHEMERIS_TYPE": 0, "CLASSIFICATION_TYPE": "U", "NORAD_CAT_ID": 42969, "ELEMENT_SET_NO": 999, "REV_AT_EPOCH": 42280, "BSTAR": 0.00010287, "MEAN_MOTION_DOT": 1.73e-06, "MEAN_MOTION_DDOT": 0}, "tle": {"line1": "1 42969U 17064A   25344.58175979  .00000173  00000+0  10287-3 0  9998", "line2": "2 42969  98.7782 283.1851 0000963  87.8705 272.2581 14.19516650422805"}}, "geometry": {"type": "Point", "coordinates": [-69.31972835803771, -37.76073157247801]}}, {"type": "Feature", "properties": {"norad_id": 42987, "name": "SKYSAT-C11", "group": "resource", "lat": 82.38145196861542, "lon": 19.46940123930156, "alt_km": 416.4109236317463, "timestamp": "2025-12-11T05:00:25.968580+00:00", "meta": {"OBJECT_NAME": "SKYSAT-C11", "OBJECT_ID": "2017-068A", "EPOCH": "2025-12-10T08:26:06.487872", "MEAN_MOTION": 15.47287048, "ECCENTRICITY": 9.342e-05, "INCLINATION": 97.4145, "RA_OF_ASC_NODE": 121.7844, "ARG_OF_PERICENTER": 105.0935, "MEAN_ANOMALY": 255.0418, "EPHEMERIS_TYPE": 0, "CLASSIFICATION_TYPE": "U", "NORAD_CAT_ID": 42987, "ELEMENT_SET_NO": 999, "REV_AT_EPOCH": 45394, "BSTAR": 0.00062243654, "MEAN_MOTION_DOT": 0.00031727, "MEAN_MOTION_DDOT": 0}, "tle": {"line1": "1 42987U 17068A   25344.35146398  .00031727  00000+0  62244-3 0  9999", "line2": "2 42987  97.4145 121.7844 0000934 105.0935 255.0418 15.47287048453944"}}, "geometry": {"type": "Point", "coordinates": [19.46940123930156, 82.38145196861542]}}, {"type": "Feature", "properties": {"norad_id": 42988, "name": "SKYSAT-C10", "group": "resource", "lat": -74.92618675561526, "lon": -92.90901802883847, "alt_km": 480.29112117670775, "timestamp": "2025-12-11T05:00:25.968590+00:00", "meta": {"OBJECT_NAME": "SKYSAT-C10", "OBJECT_ID": "2017-068B", "EPOCH": "2025-12-10T09:04:43.296096", "MEAN_MOTION": 15.31981221, "ECCENTRICITY": 0.00053198, "INCLINATION": 97.4258, "RA_OF_ASC_NODE": 115.2229, "ARG_OF_PERICENTER": 110.4799, "MEAN_ANOMALY": 249.7014, "EPHEMERIS_TYPE": 0, "CLASSIFICATION_TYPE": "U", "NORAD_CAT_ID": 42988, "ELEMENT_SET_NO": 999, "REV_AT_EPOCH": 45343, "BSTAR": 0.00054588181, "MEAN_MOTION_DOT": 0.00016803, "MEAN_MOTION_DDOT": 0}, "tle": {"line1": "1 42988U 17068B   25344.37827889  .00016803  00000+0  54588-3 0  9993", "line2": "2 42988  97.4258 115.2229 0005319 110.4799 249.7014 15.31981221453438"}}, "geometry": {"type": "Point", "coordinates": [-92.90901802883847, -74.92618675561526]}}, {"type": "Feature", "properties": {"norad_id": 42989, "name": "SKYSAT-C9", "group": "resource", "lat": 79.36705026517373, "lon": 71.49854457413062, "alt_km": 443.4861014837152, "timestamp": "2025-12-11T05:00:25.968600+00:00", "meta": {"OBJECT_NAME": "SKYSAT-C9", "OBJECT_ID": "2017-068C", "EPOCH": "2025-12-10T19:16:09.008256", "MEAN_MOTION": 15.35967716, "ECCENTRICITY": 0.00106484, "INCLINATION": 97.4187, "RA_OF_ASC_NODE": 115.0414, "ARG_OF_PERICENTER": 93.9134, "MEAN_ANOMALY": 266.3328, "EPHEMERIS_TYPE": 0, "CLASSIFICATION_TYPE": "U", "NORAD_CAT_ID": 42989, "ELEMENT_SET_NO": 999, "REV_AT_EPOCH": 45378, "BSTAR": 0.00053471643, "MEAN_MOTION_DOT": 0.00018699, "MEAN_MOTION_DDOT": 0}, "tle": {"line1": "1 42989U 17068C   25344.80288204  .00018699  00000+0  53472-3 0  9990", "line2": "2 42989  97.4187 115.0414 0010648  93.9134 266.3328 15.35967716453781"}}, "geometry": {"type": "Point", "coordinates": [71.49854457413062, 79.36705026517373]}}, {"type": "Feature", "properties": {"norad_id": 42990, "name": "SKYSAT-C8", "group": "resource", "lat": 69.10214209909441, "lon": 95.22185927221555, "alt_km": 460.2739422944496, "timestamp": "2025-12-11T05:00:25.968611+00:00", "meta": {"OBJECT_NAME": "SKYSAT-C8", "OBJECT_ID": "2017-068D", "EPOCH": "2025-12-10T19:18:03.305952", "MEAN_MOTION": 15.32847399, "ECCENTRICITY": 0.00017089, "INCLINATION": 97.4281, "RA_OF_ASC_NODE": 114.7963, "ARG_OF_PERICENTER": 358.0878, "MEAN_ANOMALY": 2.0357, "EPHEMERIS_TYPE": 0, "CLASSIFICATION_TYPE": "U", "NORAD_CAT_ID": 42990, "ELEMENT_SET_NO": 999, "REV_AT_EPOCH": 45341, "BSTAR": 0.00049353797, "MEAN_MOTION_DOT": 0.00015593, "MEAN_MOTION_DDOT": 0}, "tle": {"line1": "1 42990U 17068D   25344.80420493  .00015593  00000+0  49354-3 0  9994", "line2": "2 42990  97.4281 114.7963 0001708 358.0878   2.0357 15.32847399453418"}}, "geometry": {"type": "Point", "coordinates": [95.22185927221555, 69.10214209909441]}}, {"type": "Feature", "properties": {"norad_id": 42991, "name": "SKYSAT-C7", "group": "resource", "lat": -69.62419227914505, "lon": 136.81138271800663, "alt_km": 479.9032764551748, "timestamp": "2025-12-11T05:00:25.968621+00:00", "meta": {"OBJECT_NAME": "SKYSAT-C7", "OBJECT_ID": "2017-068E", "EPOCH": "2025-12-10T15:12:38.511648", "MEAN_MOTION": 15.32250741, "ECCENTRICITY": 0.0007735, "INCLINATION": 97.4287, "RA_OF_ASC_NODE": 115.6678, "ARG_OF_PERICENTER": 63.4105, "MEAN_ANOMALY": 296.7929, "EPHEMERIS_TYPE": 0, "CLASSIFICATION_TYPE": "U", "NORAD_CAT_ID": 42991, "ELEMENT_SET_NO": 999, "REV_AT_EPOCH": 45345, "BSTAR": 0.00055138, "MEAN_MOTION_DOT": 0.00017125, "MEAN_MOTION_DDOT": 0}, "tle": {"line1": "1 42991U 17068E   25344.63377907  .00017125  00000+0  55138-3 0  9997", "line2": "2 42991  97.4287 115.6678 0007735  63.4105 296.7929 15.32250741453454"}}, "geometry": {"type": "Point", "coordinates": [136.81138271800663, -69.62419227914505]}}, {"type": "Feature", "properties": {"norad_id": 42992, "name": "SKYSAT-C6", "group": "resource", "lat": 49.96912953470866, "lon": 107.74438069125517, "alt_km": 464.12664319710984, "timestamp": "2025-12-11T05:00:25.968631+00:00", "meta": {"OBJECT_NAME": "SKYSAT-C6", "OBJECT_ID": "2017-068F", "EPOCH": "2025-12-10T19:22:41.837088", "MEAN_MOTION": 15.3142184, "ECCENTRICITY": 0.00052036, "INCLINATION": 97.432, "RA_OF_ASC_NODE": 116.2821, "ARG_OF_PERICENTER": 87.635, "MEAN_ANOMALY": 272.5487, "EPHEMERIS_TYPE": 0, "CLASSIFICATION_TYPE": "U", "NORAD_CAT_ID": 42992, "ELEMENT_SET_NO": 999, "REV_AT_EPOCH": 45346, "BSTAR": 0.00052032995, "MEAN_MOTION_DOT": 0.00015733, "MEAN_MOTION_DDOT": 0}, "tle": {"line1": "1 42992U 17068F   25344.80742867  .00015733  00000+0  52033-3 0  9992", "line2": "2 42992  97.4320 116.2821 0005203  87.6350 272.5487 15.31421840453469"}}, "geometry": {"type": "Point", "coordinates": [107.74438069125517, 49.96912953470866]}}, {"type": "Feature", "properties": {"norad_id": 43111, "name": "CARTOSAT-2F", "group": "resource", "lat": -43.85060700531803, "lon": -144.3323139959823, "alt_km": 514.7861702640648, "timestamp": "2025-12-11T05:00:25.968641+00:00", "meta": {"OBJECT_NAME": "CARTOSAT-2F", "OBJECT_ID": "2018-004A", "EPOCH": "2025-12-10T21:42:01.082016", "MEAN_MOTION": 15.19242101, "ECCENTRICITY": 8.514e-05, "INCLINATION": 97.4313, "RA_OF_ASC_NODE": 42.5714, "ARG_OF_PERICENTER": 142.3339, "MEAN_ANOMALY": 217.7955, "EPHEMERIS_TYPE": 0, "CLASSIFICATION_TYPE": "U", "NORAD_CAT_ID": 43111, "ELEMENT_SET_NO": 999, "REV_AT_EPOCH": 43874, "BSTAR": 0.00033712796, "MEAN_MOTION_DOT": 7.038e-05, "MEAN_MOTION_DDOT": 0}, "tle": {"line1": "1 43111U 18004A   25344.90417919  .00007038  00000+0  33713-3 0  9998", "line2": "2 43111  97.4313  42.5714 0000851 142.3339 217.7955 15.19242101438749"}}, "geometry": {"type": "Point", "coordinates": [-144.3323139959823, -43.85060700531803]}}, {"type": "Feature", "properties": {"norad_id": 43259, "name": "GAOFEN-1 02", "group": "resource", "lat": -45.73057360657379, "lon": -145.38291543034077, "alt_km": 646.2099040911271, "timestamp": "2025-12-11T05:00:25.968651+00:00", "meta": {"OBJECT_NAME": "GAOFEN-1 02", "OBJECT_ID": "2018-031A", "EPOCH": "2025-12-10T23:06:22.204800", "MEAN_MOTION": 14.76472631, "ECCENTRICITY": 0.00014943, "INCLINATION": 98.0804, "RA_OF_ASC_NODE": 42.7511, "ARG_OF_PERICENTER": 217.0929, "MEAN_ANOMALY": 143.0177, "EPHEMERIS_TYPE": 0, "CLASSIFICATION_TYPE": "U", "NORAD_CAT_ID": 43259, "ELEMENT_SET_NO": 999, "REV_AT_EPOCH": 41492, "BSTAR": 0.00014943069, "MEAN_MOTION_DOT": 9.88e-06, "MEAN_MOTION_DDOT": 0}, "tle": {"line1": "1 43259U 18031A   25344.96275700  .00000988  00000+0  14943-3 0  9998", "line2": "2 43259  98.0804  42.7511 0001494 217.0929 143.0177 14.76472631414926"}}, "geometry": {"type": "Point", "coordinates": [-145.38291543034077, -45.73057360657379]}}, {"type": "Feature", "properties": {"norad_id": 43260, "name": "GAOFEN-1 03", "group": "resource", "lat": -18.44380214645983, "lon": 45.58994306339184, "alt_km": 644.2319592407957, "timestamp": "2025-12-11T05:00:25.968661+00:00", "meta": {"OBJECT_NAME": "GAOFEN-1 03", "OBJECT_ID": "2018-031B", "EPOCH": "2025-12-10T22:35:07.068192", "MEAN_MOTION": 14.76430853, "ECCENTRICITY": 0.00021019, "INCLINATION": 98.0801, "RA_OF_ASC_NODE": 42.6067, "ARG_OF_PERICENTER": 330.4411, "MEAN_ANOMALY": 29.668, "EPHEMERIS_TYPE": 0, "CLASSIFICATION_TYPE": "U", "NORAD_CAT_ID": 43260, "ELEMENT_SET_NO": 999, "REV_AT_EPOCH": 41491, "BSTAR": 0.00021975738, "MEAN_MOTION_DOT": 1.476e-05, "MEAN_MOTION_DDOT": 0}, "tle": {"line1": "1 43260U 18031B   25344.94105403  .00001476  00000+0  21976-3 0  9997", "line2": "2 43260  98.0801  42.6067 0002101 330.4411  29.6680 14.76430853414919"}}, "geometry": {"type": "Point", "coordinates": [45.58994306339184, -18.44380214645983]}}]}